TROLL                   
1 62658U 25009BB  26068.22522958  .00013174  00000+0  48220-3 0  9994
2 62658  97.3932 150.7169 0001816  59.1850 300.9568 15.28164315118170
STARLINK-34077          
1 64009U 25101R   26068.13798973  .00033147  00000+0  12078-2 0  9994
2 64009  43.0039   0.8363 0001216 287.6209  72.4509 15.27604249 46977
